[{"OBJECT_NAME":"SAPPHIRE","OBJECT_ID":"2013-009C","EPOCH":"2026-03-06T01:15:32.013504","MEAN_MOTION":14.35207,"ECCENTRICITY":0.0010984,"INCLINATION":98.4217,"RA_OF_ASC_NODE":246.9665,"ARG_OF_PERICENTER":190.4951,"MEAN_ANOMALY":169.6007,"EPHEMERIS_TYPE":0,"CLASSIFICATION_TYPE":"U","NORAD_CAT_ID":39088,"ELEMENT_SET_NO":999,"REV_AT_EPOCH":68178,"BSTAR":9.2572957e-5,"MEAN_MOTION_DOT":2.22e-6,"MEAN_MOTION_DDOT":0},{"OBJECT_NAME":"PRAETORIAN SDA_602","OBJECT_ID":"2025-203A","EPOCH":"2026-03-06T05:56:11.776128","MEAN_MOTION":13.84333059,"ECCENTRICITY":0.00071497,"INCLINATION":81.3003,"RA_OF_ASC_NODE":106.129,"ARG_OF_PERICENTER":110.3833,"MEAN_ANOMALY":249.8093,"EPHEMERIS_TYPE":0,"CLASSIFICATION_TYPE":"U","NORAD_CAT_ID":65565,"ELEMENT_SET_NO":999,"REV_AT_EPOCH":2445,"BSTAR":0.00029067618,"MEAN_MOTION_DOT":3.37e-6,"MEAN_MOTION_DDOT":0},{"OBJECT_NAME":"PRAETORIAN SDA_603","OBJECT_ID":"2025-203B","EPOCH":"2026-03-06T04:03:53.558496","MEAN_MOTION":13.83902996,"ECCENTRICITY":0.00107862,"INCLINATION":81.3005,"RA_OF_ASC_NODE":106.0435,"ARG_OF_PERICENTER":110.9189,"MEAN_ANOMALY":249.3123,"EPHEMERIS_TYPE":0,"CLASSIFICATION_TYPE":"U","NORAD_CAT_ID":65566,"ELEMENT_SET_NO":999,"REV_AT_EPOCH":2445,"BSTAR":0.00023831364,"MEAN_MOTION_DOT":2.76e-6,"MEAN_MOTION_DDOT":0},{"OBJECT_NAME":"PRAETORIAN SDA_604","OBJECT_ID":"2025-203C","EPOCH":"2026-03-06T04:44:10.557024","MEAN_MOTION":13.830338,"ECCENTRICITY":0.0006743,"INCLINATION":81.3026,"RA_OF_ASC_NODE":106.2718,"ARG_OF_PERICENTER":116.2719,"MEAN_ANOMALY":243.913,"EPHEMERIS_TYPE":0,"CLASSIFICATION_TYPE":"U","NORAD_CAT_ID":65567,"ELEMENT_SET_NO":999,"REV_AT_EPOCH":2444,"BSTAR":5.0407074e-5,"MEAN_MOTION_DOT":6.7e-7,"MEAN_MOTION_DDOT":0},{"OBJECT_NAME":"PRAETORIAN SDA_605","OBJECT_ID":"2025-203D","EPOCH":"2026-03-06T04:38:54.479040","MEAN_MOTION":13.83528355,"ECCENTRICITY":0.00095136,"INCLINATION":81.2987,"RA_OF_ASC_NODE":106.0433,"ARG_OF_PERICENTER":106.8005,"MEAN_ANOMALY":253.4196,"EPHEMERIS_TYPE":0,"CLASSIFICATION_TYPE":"U","NORAD_CAT_ID":65568,"ELEMENT_SET_NO":999,"REV_AT_EPOCH":2445,"BSTAR":5.4782087e-5,"MEAN_MOTION_DOT":7.2e-7,"MEAN_MOTION_DDOT":0},{"OBJECT_NAME":"PRAETORIAN SDA_606","OBJECT_ID":"2025-203E","EPOCH":"2026-03-06T06:02:14.277696","MEAN_MOTION":13.83531623,"ECCENTRICITY":0.00070771,"INCLINATION":81.3026,"RA_OF_ASC_NODE":106.1779,"ARG_OF_PERICENTER":107.1531,"MEAN_ANOMALY":253.04,"EPHEMERIS_TYPE":0,"CLASSIFICATION_TYPE":"U","NORAD_CAT_ID":65569,"ELEMENT_SET_NO":999,"REV_AT_EPOCH":2445,"BSTAR":0.00028109397,"MEAN_MOTION_DOT":3.22e-6,"MEAN_MOTION_DDOT":0},{"OBJECT_NAME":"PRAETORIAN SDA_607","OBJECT_ID":"2025-203F","EPOCH":"2026-03-06T05:59:08.434752","MEAN_MOTION":13.84465383,"ECCENTRICITY":0.00100917,"INCLINATION":81.3009,"RA_OF_ASC_NODE":105.9952,"ARG_OF_PERICENTER":109.8985,"MEAN_ANOMALY":250.326,"EPHEMERIS_TYPE":0,"CLASSIFICATION_TYPE":"U","NORAD_CAT_ID":65570,"ELEMENT_SET_NO":999,"REV_AT_EPOCH":2446,"BSTAR":0.00025384501,"MEAN_MOTION_DOT":2.96e-6,"MEAN_MOTION_DDOT":0},{"OBJECT_NAME":"PRAETORIAN SDA_608","OBJECT_ID":"2025-203G","EPOCH":"2026-03-06T04:34:27.281856","MEAN_MOTION":13.83886404,"ECCENTRICITY":0.00071602,"INCLINATION":81.2978,"RA_OF_ASC_NODE":106.1674,"ARG_OF_PERICENTER":115.8619,"MEAN_ANOMALY":244.3276,"EPHEMERIS_TYPE":0,"CLASSIFICATION_TYPE":"U","NORAD_CAT_ID":65571,"ELEMENT_SET_NO":999,"REV_AT_EPOCH":2444,"BSTAR":5.5683031e-5,"MEAN_MOTION_DOT":7.4e-7,"MEAN_MOTION_DDOT":0},{"OBJECT_NAME":"PRAETORIAN SDA_609","OBJECT_ID":"2025-203H","EPOCH":"2026-03-06T05:29:38.859936","MEAN_MOTION":13.84313239,"ECCENTRICITY":0.00081601,"INCLINATION":81.3024,"RA_OF_ASC_NODE":106.1402,"ARG_OF_PERICENTER":111.1927,"MEAN_ANOMALY":249.0103,"EPHEMERIS_TYPE":0,"CLASSIFICATION_TYPE":"U","NORAD_CAT_ID":65572,"ELEMENT_SET_NO":999,"REV_AT_EPOCH":2445,"BSTAR":0.00025335851,"MEAN_MOTION_DOT":2.95e-6,"MEAN_MOTION_DDOT":0},{"OBJECT_NAME":"PRAETORIAN SDA_610","OBJECT_ID":"2025-203J","EPOCH":"2026-03-06T05:55:44.035680","MEAN_MOTION":13.84010751,"ECCENTRICITY":0.00077806,"INCLINATION":81.298,"RA_OF_ASC_NODE":106.0813,"ARG_OF_PERICENTER":111.141,"MEAN_ANOMALY":249.0578,"EPHEMERIS_TYPE":0,"CLASSIFICATION_TYPE":"U","NORAD_CAT_ID":65573,"ELEMENT_SET_NO":999,"REV_AT_EPOCH":2445,"BSTAR":6.5616929e-5,"MEAN_MOTION_DOT":8.5e-7,"MEAN_MOTION_DDOT":0},{"OBJECT_NAME":"PRAETORIAN SDA_611","OBJECT_ID":"2025-203K","EPOCH":"2026-03-06T04:52:22.281888","MEAN_MOTION":13.83295815,"ECCENTRICITY":0.0006871,"INCLINATION":81.297,"RA_OF_ASC_NODE":106.1931,"ARG_OF_PERICENTER":119.3785,"MEAN_ANOMALY":240.8058,"EPHEMERIS_TYPE":0,"CLASSIFICATION_TYPE":"U","NORAD_CAT_ID":65574,"ELEMENT_SET_NO":999,"REV_AT_EPOCH":2444,"BSTAR":0.00023806654,"MEAN_MOTION_DOT":2.73e-6,"MEAN_MOTION_DDOT":0},{"OBJECT_NAME":"PRAETORIAN SDA_612","OBJECT_ID":"2025-203L","EPOCH":"2026-03-06T05:58:28.776288","MEAN_MOTION":13.85045152,"ECCENTRICITY":0.00105197,"INCLINATION":81.3,"RA_OF_ASC_NODE":105.9897,"ARG_OF_PERICENTER":111.0294,"MEAN_ANOMALY":249.1989,"EPHEMERIS_TYPE":0,"CLASSIFICATION_TYPE":"U","NORAD_CAT_ID":65575,"ELEMENT_SET_NO":999,"REV_AT_EPOCH":2446,"BSTAR":0.00024752201,"MEAN_MOTION_DOT":2.92e-6,"MEAN_MOTION_DDOT":0},{"OBJECT_NAME":"PRAETORIAN SDA_613","OBJECT_ID":"2025-203M","EPOCH":"2026-03-06T06:03:27.360000","MEAN_MOTION":13.82988268,"ECCENTRICITY":0.00071024,"INCLINATION":81.2968,"RA_OF_ASC_NODE":106.0871,"ARG_OF_PERICENTER":111.8917,"MEAN_ANOMALY":248.2995,"EPHEMERIS_TYPE":0,"CLASSIFICATION_TYPE":"U","NORAD_CAT_ID":65576,"ELEMENT_SET_NO":999,"REV_AT_EPOCH":2445,"BSTAR":0.00025117293,"MEAN_MOTION_DOT":2.86e-6,"MEAN_MOTION_DDOT":0},{"OBJECT_NAME":"PRAETORIAN SDA_614","OBJECT_ID":"2025-203N","EPOCH":"2026-03-06T05:15:01.207008","MEAN_MOTION":13.84765203,"ECCENTRICITY":0.00083776,"INCLINATION":81.2984,"RA_OF_ASC_NODE":106.0699,"ARG_OF_PERICENTER":109.2265,"MEAN_ANOMALY":250.98,"EPHEMERIS_TYPE":0,"CLASSIFICATION_TYPE":"U","NORAD_CAT_ID":65577,"ELEMENT_SET_NO":999,"REV_AT_EPOCH":2446,"BSTAR":5.190946e-5,"MEAN_MOTION_DOT":7.0e-7,"MEAN_MOTION_DDOT":0},{"OBJECT_NAME":"PRAETORIAN SDA_615","OBJECT_ID":"2025-203P","EPOCH":"2026-03-06T05:49:07.615200","MEAN_MOTION":13.8442228,"ECCENTRICITY":0.0010262,"INCLINATION":81.2996,"RA_OF_ASC_NODE":105.9469,"ARG_OF_PERICENTER":109.1811,"MEAN_ANOMALY":251.0457,"EPHEMERIS_TYPE":0,"CLASSIFICATION_TYPE":"U","NORAD_CAT_ID":65578,"ELEMENT_SET_NO":999,"REV_AT_EPOCH":2446,"BSTAR":0.00026978765,"MEAN_MOTION_DOT":3.14e-6,"MEAN_MOTION_DDOT":0},{"OBJECT_NAME":"PRAETORIAN SDA_616","OBJECT_ID":"2025-203Q","EPOCH":"2026-03-06T04:51:15.691680","MEAN_MOTION":13.83299546,"ECCENTRICITY":0.00065498,"INCLINATION":81.3028,"RA_OF_ASC_NODE":106.2772,"ARG_OF_PERICENTER":114.4169,"MEAN_ANOMALY":245.7671,"EPHEMERIS_TYPE":0,"CLASSIFICATION_TYPE":"U","NORAD_CAT_ID":65579,"ELEMENT_SET_NO":999,"REV_AT_EPOCH":2444,"BSTAR":0.00024480617,"MEAN_MOTION_DOT":2.81e-6,"MEAN_MOTION_DDOT":0}]
