SAPPHIRE                
1 39088U 13009C   26065.05245386  .00000222  00000+0  92573-4 0  9998
2 39088  98.4217 246.9665 0010984 190.4951 169.6007 14.35207000681781
PRAETORIAN SDA_602      
1 65565U 25203A   26065.24735852  .00000337  00000+0  29068-3 0  9994
2 65565  81.3003 106.1290 0007149 110.3833 249.8093 13.84333059 24452
PRAETORIAN SDA_603      
1 65566U 25203B   26065.16936989  .00000276  00000+0  23831-3 0  9994
2 65566  81.3005 106.0435 0010786 110.9189 249.3123 13.83902996 24456
PRAETORIAN SDA_604      
1 65567U 25203C   26065.19734441  .00000067  00000+0  50407-4 0  9995
2 65567  81.3026 106.2718 0006743 116.2719 243.9130 13.83033800 24448
PRAETORIAN SDA_605      
1 65568U 25203D   26065.19368610  .00000072  00000+0  54782-4 0  9993
2 65568  81.2987 106.0433 0009513 106.8005 253.4196 13.83528355 24450
PRAETORIAN SDA_606      
1 65569U 25203E   26065.25155414  .00000322  00000+0  28109-3 0  9998
2 65569  81.3026 106.1779 0007077 107.1531 253.0400 13.83531623 24457
PRAETORIAN SDA_607      
1 65570U 25203F   26065.24940318  .00000296  00000+0  25385-3 0  9997
2 65570  81.3009 105.9952 0010091 109.8985 250.3260 13.84465383 24467
PRAETORIAN SDA_608      
1 65571U 25203G   26065.19059354  .00000074  00000+0  55683-4 0  9992
2 65571  81.2978 106.1674 0007160 115.8619 244.3276 13.83886404 24448
PRAETORIAN SDA_609      
1 65572U 25203H   26065.22892199  .00000295  00000+0  25336-3 0  9995
2 65572  81.3024 106.1402 0008160 111.1927 249.0103 13.84313239 24457
PRAETORIAN SDA_610      
1 65573U 25203J   26065.24703745  .00000085  00000+0  65617-4 0  9990
2 65573  81.2980 106.0813 0007780 111.1410 249.0578 13.84010751 24456
PRAETORIAN SDA_611      
1 65574U 25203K   26065.20303567  .00000273  00000+0  23807-3 0  9998
2 65574  81.2970 106.1931 0006871 119.3785 240.8058 13.83295815 24449
PRAETORIAN SDA_612      
1 65575U 25203L   26065.24894417  .00000292  00000+0  24752-3 0  9993
2 65575  81.3000 105.9897 0010519 111.0294 249.1989 13.85045152 24467
PRAETORIAN SDA_613      
1 65576U 25203M   26065.25240000  .00000286  00000+0  25117-3 0  9997
2 65576  81.2968 106.0871 0007102 111.8917 248.2995 13.82988268 24455
PRAETORIAN SDA_614      
1 65577U 25203N   26065.21876397  .00000070  00000+0  51909-4 0  9998
2 65577  81.2984 106.0699 0008377 109.2265 250.9800 13.84765203 24464
PRAETORIAN SDA_615      
1 65578U 25203P   26065.24244925  .00000314  00000+0  26979-3 0  9997
2 65578  81.2996 105.9469 0010262 109.1811 251.0457 13.84422280 24468
PRAETORIAN SDA_616      
1 65579U 25203Q   26065.20226495  .00000281  00000+0  24481-3 0  9995
2 65579  81.3028 106.2772 0006549 114.4169 245.7671 13.83299546 24447
